0 TIANMU-1 12
1 58646U 23205B   26180.01585220  .00005455  00000-0  20848-3 0  9995
2 58646  97.3429 201.1404 0005493 312.9942  47.0836 15.27011080139318
0 TIANMU-1 06
1 55976U 23039D   26180.00222480  .00014150  00000-0  27123-3 0  9993
2 55976  97.5220 354.6946 0004050  81.1878 278.9831 15.48124206182673
0 TIANMU-1 10
1 57402U 23101D   26179.98731594  .00005985  00000-0  20886-3 0  9990
2 57402  97.2615 230.6260 0006425  96.1647 264.0326 15.29952788163446
0 TIANMU-1 11
1 58645U 23205A   26179.97957829  .00005158  00000-0  19662-3 0  9997
2 58645  97.3439 201.3516 0007564 333.4982  26.5870 15.27112677139322
0 TIANMU-1 08
1 57400U 23101B   26179.97088840  .00005785  00000-0  20202-3 0  9996
2 57400  97.2578 230.1378 0005629  86.7055 273.4830 15.29944924163447
0 TIANMU-1 09
1 57401U 23101C   26179.95405236  .00006079  00000-0  21197-3 0  9998
2 57401  97.2536 229.5311 0004912 100.6180 259.5614 15.29979903163440
0 TIANMU-1 03
1 55973U 23039A   26179.94857191  .00014339  00000-0  27976-3 0  9999
2 55973  97.5228 354.3808 0003862  70.5738 289.5929 15.47610733182657
0 TIANMU-1 07
1 57399U 23101A   26179.93887471  .00005937  00000-0  20734-3 0  9995
2 57399  97.2589 230.3375 0004329  97.6928 262.4805 15.29940203163447
0 TIANMU-1 04
1 55974U 23039B   26179.93347006  .00014460  00000-0  27617-3 0  9995
2 55974  97.5168 353.5194 0004263  63.6898 296.4789 15.48221819182662
0 TIANMU-1 05
1 55975U 23039C   26179.92991042  .00014246  00000-0  27867-3 0  9999
2 55975  97.5212 353.9717 0003841  86.1728 273.9961 15.47536416182631
